TJS-9                   
1 50574U 21135A   23017.67223877 -.00000280  00000+0  00000+0 0  9997
2 50574   0.0257  56.5523 0002805 128.8690 310.6502  1.00268105  3960
USA 324                 
1 51280U 22006A   23017.31439571 -.00000337  00000+0  00000+0 0  9994
2 51280   0.3118  94.5489 0000445 223.0814  21.5803  1.00402581  3602
USA 325                 
1 51281U 22006B   23005.29424263 -.00000115  00000+0  00000+0 0  9995
2 51281   0.2204  93.7762 0000588 252.6806 299.5201  1.00433381  3487
GOES 18                 
1 51850U 22021A   23017.38313286  .00000117  00000+0  00000+0 0  9990
2 51850   0.0281 187.2585 0000266 122.2525 168.0062  1.00271354  3280
CHINASAT 6D             
1 52255U 22038A   23017.03056895 -.00000333  00000+0  00000+0 0  9991
2 52255   0.0105  61.4193 0001055 241.6082 309.2434  1.00272946  2935
NILESAT 301             
1 52817U 22061A   23017.43433468 -.00000038  00000+0  00000+0 0  9992
2 52817   0.0452 341.5537 0005477 340.6489 303.7410  1.00270296  2244
CMS-02 (GSAT 24)        
1 52903U 22067A   23017.45255215 -.00000145  00000+0  00000+0 0  9997
2 52903   0.1092 274.7778 0004108 173.0475 274.6763  1.00270449  2111
MEASAT 3D               
1 52904U 22067B   23017.52603220 -.00000222  00000+0  00000+0 0  9995
2 52904   0.0510 304.1756 0003144   1.5857  91.7743  1.00272767  2142
SES-22                  
1 52933U 22071A   23017.55261750  .00000108  00000+0  00000+0 0  9995
2 52933   0.0174  56.7794 0002375 237.2603 246.5803  1.00271458  2068
WFOV (USA 332)          
1 52940U 22073A   23017.59922534 -.00000343  00000+0  00000+0 0  9995
2 52940   0.4935  96.8086 0003820 221.3216 133.6126  1.00269034  1862
TIANLIAN 2-03           
1 53100U 22078A   23017.58157169  .00000095  00000+0  00000+0 0  9995
2 53100   2.5506 282.9747 0001479  92.5634 321.1472  1.00272337  2050
SBIRS GEO-6 (USA 336)   
1 53355U 22092A   23017.54865192  .00000143  00000+0  00000+0 0  9995
2 53355   6.2604 311.7244 0003221 337.5650 239.9285  1.00271894  1731
CHINASAT 1E (ZX 1E)     
1 53813U 22112A   23017.16532594 -.00000128  00000+0  00000+0 0  9996
2 53813   1.2016 279.0422 0003083  18.0717 320.1412  1.00272655  1334
SES-20                  
1 53960U 22123A   23013.68582824 -.00000080  00000+0  00000+0 0  9992
2 53960   0.0623 118.0584 0000550 171.9096 326.6979  1.00268757  1005
SES-21                  
1 53961U 22123B   23017.03243984  .00000090  00000+0  00000+0 0  9997
2 53961   0.0308  51.8727 0000820 255.2861  49.7674  1.00269715  1050
GALAXY 33 (G-33)        
1 54026U 22128A   23017.54959549  .00000099  00000+0  00000+0 0  9991
2 54026   0.0172  21.6144 0001878 276.2314 243.7068  1.00274659  1258
GALAXY 34 (G-34)        
1 54027U 22128B   23017.03545839  .00000080  00000+0  00000+0 0  9999
2 54027   0.0141  13.1163 0002030  55.4587 291.4466  1.00271134  1417
ANGOSAT 2               
1 54033U 22131A   23017.51234730  .00000155  00000+0  00000+0 0  9991
2 54033   0.0141 119.3460 0000200 335.2265 229.5088  1.00270499   966
CHINASAT 19 (ZX 19)     
1 54230U 22148A   23017.54032726 -.00000060  00000+0  00000+0 0  9998
2 54230   0.0361 110.8330 0006756 159.9723 203.8315  1.00271514   870
GALAXY 31 (G-31)        
1 54243U 22153A   23017.48175240  .00000062  00000+0  00000+0 0  9991
2 54243   0.0785 258.5717 0001970  43.2299 217.8970  1.00469294   640
GALAXY 32 (G-32)        
1 54244U 22153B   23013.69077167  .00000129  00000+0  00000+0 0  9994
2 54244   0.0168  88.6440 0008629 194.6771 290.5854  1.00591798   616
METEOSAT-12 (MTG-1)     
1 54743U 22170C   23017.57878241 -.00000009  00000+0  00000+0 0  9998
2 54743   0.9228 298.6324 0000475 132.5342 250.5672  1.00273735   472
